{"type": "FeatureCollection", "features": [ {"type": "Feature", "properties": {"norad_id": 66396, "name": "STARLINK-35669", "group": "last-30-days", "lat": 50.91005678972466, "lon": 40.68561227375208, "alt_km": 437.7784371544294, "timestamp": "2025-12-07T16:44:02.688566+00:00", "meta": {"OBJECT_NAME": "STARLINK-35669", "OBJECT_ID": "2025-257S", "EPOCH": "2025-12-06T10:42:24.997824", "MEAN_MOTION": 15.41403354, "ECCENTRICITY": 0.00010154, "INCLINATION": 53.159, "RA_OF_ASC_NODE": 293.9458, "ARG_OF_PERICENTER": 86.044, "MEAN_ANOMALY": 274.0681, "EPHEMERIS_TYPE": 0, "CLASSIFICATION_TYPE": "U", "NORAD_CAT_ID": 66396, "ELEMENT_SET_NO": 999, "REV_AT_EPOCH": 540, "BSTAR": -0.010984425, "MEAN_MOTION_DOT": -0.00440633, "MEAN_MOTION_DDOT": 0}, "tle": {"line1": "1 66396U 25257S   25340.44612266 -.00440633  00000+0 -10984-1 0  9990", "line2": "2 66396  53.1590 293.9458 0001015  86.0440 274.0681 15.41403354  5401"}}, "geometry": {"type": "Point", "coordinates": [40.68561227375208, 50.91005678972466]}}, {"type": "Feature", "properties": {"norad_id": 66397, "name": "STARLINK-35510", "group": "last-30-days", "lat": 42.38015734770296, "lon": 64.8356330647652, "alt_km": 445.3707662372899, "timestamp": "2025-12-07T16:44:02.688577+00:00", "meta": {"OBJECT_NAME": "STARLINK-35510", "OBJECT_ID": "2025-257T", "EPOCH": "2025-12-07T00:00:02.000160", "MEAN_MOTION": 15.41453584, "ECCENTRICITY": 0.00013142, "INCLINATION": 53.1594, "RA_OF_ASC_NODE": 291.2889, "ARG_OF_PERICENTER": 103.4519, "MEAN_ANOMALY": 112.1091, "EPHEMERIS_TYPE": 0, "CLASSIFICATION_TYPE": "U", "NORAD_CAT_ID": 66397, "ELEMENT_SET_NO": 999, "REV_AT_EPOCH": 557, "BSTAR": -0.059900281, "MEAN_MOTION_DOT": -0.02277458, "MEAN_MOTION_DDOT": 0}, "tle": {"line1": "1 66397U 25257T   25341.00002315 -.02277458  00000+0 -59900-1 0  9998", "line2": "2 66397  53.1594 291.2889 0001314 103.4519 112.1091 15.41453584  5573"}}, "geometry": {"type": "Point", "coordinates": [64.8356330647652, 42.38015734770296]}}, {"type": "Feature", "properties": {"norad_id": 66398, "name": "STARLINK-35642", "group": "last-30-days", "lat": 11.05282754719022, "lon": 99.49148608568028, "alt_km": 423.5097538374566, "timestamp": "2025-12-07T16:44:02.688588+00:00", "meta": {"OBJECT_NAME": "STARLINK-35642", "OBJECT_ID": "2025-257U", "EPOCH": "2025-12-06T04:22:47.917920", "MEAN_MOTION": 15.48674632, "ECCENTRICITY": 9.202e-05, "INCLINATION": 53.1592, "RA_OF_ASC_NODE": 295.1428, "ARG_OF_PERICENTER": 161.1871, "MEAN_ANOMALY": 198.9172, "EPHEMERIS_TYPE": 0, "CLASSIFICATION_TYPE": "U", "NORAD_CAT_ID": 66398, "ELEMENT_SET_NO": 999, "REV_AT_EPOCH": 536, "BSTAR": -0.0089627224, "MEAN_MOTION_DOT": -0.00460233, "MEAN_MOTION_DDOT": 0}, "tle": {"line1": "1 66398U 25257U   25340.18249905 -.00460233  00000+0 -89627-2 0  9998", "line2": "2 66398  53.1592 295.1428 0000920 161.1871 198.9172 15.48674632  5363"}}, "geometry": {"type": "Point", "coordinates": [99.49148608568028, 11.05282754719022]}}, {"type": "Feature", "properties": {"norad_id": 66399, "name": "STARLINK-35657", "group": "last-30-days", "lat": 41.40846907916961, "lon": 66.60865491167061, "alt_km": 445.9365238536393, "timestamp": "2025-12-07T16:44:02.688599+00:00", "meta": {"OBJECT_NAME": "STARLINK-35657", "OBJECT_ID": "2025-257V", "EPOCH": "2025-12-07T00:00:02.000160", "MEAN_MOTION": 15.41047321, "ECCENTRICITY": 0.00012351, "INCLINATION": 53.1592, "RA_OF_ASC_NODE": 291.2839, "ARG_OF_PERICENTER": 99.8218, "MEAN_ANOMALY": 118.02, "EPHEMERIS_TYPE": 0, "CLASSIFICATION_TYPE": "U", "NORAD_CAT_ID": 66399, "ELEMENT_SET_NO": 999, "REV_AT_EPOCH": 557, "BSTAR": -0.055178293, "MEAN_MOTION_DOT": -0.02054526, "MEAN_MOTION_DDOT": 0}, "tle": {"line1": "1 66399U 25257V   25341.00002315 -.02054526  00000+0 -55178-1 0  9992", "line2": "2 66399  53.1592 291.2839 0001235  99.8218 118.0200 15.41047321  5579"}}, "geometry": {"type": "Point", "coordinates": [66.60865491167061, 41.40846907916961]}}, {"type": "Feature", "properties": {"norad_id": 66400, "name": "STARLINK-35667", "group": "last-30-days", "lat": 2.8364321350791712, "lon": 105.76578766891735, "alt_km": 421.8188374049414, "timestamp": "2025-12-07T16:44:02.688609+00:00", "meta": {"OBJECT_NAME": "STARLINK-35667", "OBJECT_ID": "2025-257W", "EPOCH": "2025-12-06T22:56:20.992992", "MEAN_MOTION": 15.48637466, "ECCENTRICITY": 0.00034264, "INCLINATION": 53.1592, "RA_OF_ASC_NODE": 291.4379, "ARG_OF_PERICENTER": 295.9123, "MEAN_ANOMALY": 64.1532, "EPHEMERIS_TYPE": 0, "CLASSIFICATION_TYPE": "U", "NORAD_CAT_ID": 66400, "ELEMENT_SET_NO": 999, "REV_AT_EPOCH": 548, "BSTAR": 0.0026943412, "MEAN_MOTION_DOT": 0.0014875, "MEAN_MOTION_DDOT": 0}, "tle": {"line1": "1 66400U 25257W   25340.95579853  .00148750  00000+0  26943-2 0  9992", "line2": "2 66400  53.1592 291.4379 0003426 295.9123  64.1532 15.48637466  5482"}}, "geometry": {"type": "Point", "coordinates": [105.76578766891735, 2.8364321350791712]}}, {"type": "Feature", "properties": {"norad_id": 66401, "name": "STARLINK-35668", "group": "last-30-days", "lat": 6.51595121228045, "lon": 102.9918375311641, "alt_km": 431.1184596325602, "timestamp": "2025-12-07T16:44:02.688621+00:00", "meta": {"OBJECT_NAME": "STARLINK-35668", "OBJECT_ID": "2025-257X", "EPOCH": "2025-12-06T08:00:01.999872", "MEAN_MOTION": 15.49728436, "ECCENTRICITY": 0.00015575, "INCLINATION": 53.1587, "RA_OF_ASC_NODE": 294.4065, "ARG_OF_PERICENTER": 90.2703, "MEAN_ANOMALY": 39.9269, "EPHEMERIS_TYPE": 0, "CLASSIFICATION_TYPE": "U", "NORAD_CAT_ID": 66401, "ELEMENT_SET_NO": 999, "REV_AT_EPOCH": 546, "BSTAR": -0.033578695, "MEAN_MOTION_DOT": -0.01694206, "MEAN_MOTION_DDOT": 0}, "tle": {"line1": "1 66401U 25257X   25340.33335648 -.01694206  00000+0 -33579-1 0  9994", "line2": "2 66401  53.1587 294.4065 0001557  90.2703  39.9269 15.49728436  5469"}}, "geometry": {"type": "Point", "coordinates": [102.9918375311641, 6.51595121228045]}}, {"type": "Feature", "properties": {"norad_id": 66402, "name": "STARLINK-35644", "group": "last-30-days", "lat": -2.3218163592891865, "lon": 109.62070877618167, "alt_km": 418.92392117508007, "timestamp": "2025-12-07T16:44:02.688631+00:00", "meta": {"OBJECT_NAME": "STARLINK-35644", "OBJECT_ID": "2025-257Y", "EPOCH": "2025-12-06T05:53:33.843840", "MEAN_MOTION": 15.49361286, "ECCENTRICITY": 7.923e-05, "INCLINATION": 53.1581, "RA_OF_ASC_NODE": 294.8244, "ARG_OF_PERICENTER": 85.5717, "MEAN_ANOMALY": 274.5382, "EPHEMERIS_TYPE": 0, "CLASSIFICATION_TYPE": "U", "NORAD_CAT_ID": 66402, "ELEMENT_SET_NO": 999, "REV_AT_EPOCH": 537, "BSTAR": 0.0018840832, "MEAN_MOTION_DOT": 0.00105964, "MEAN_MOTION_DDOT": 0}, "tle": {"line1": "1 66402U 25257Y   25340.24553060  .00105964  00000+0  18841-2 0  9996", "line2": "2 66402  53.1581 294.8244 0000792  85.5717 274.5382 15.49361286  5378"}}, "geometry": {"type": "Point", "coordinates": [109.62070877618167, -2.3218163592891865]}}, {"type": "Feature", "properties": {"norad_id": 66403, "name": "STARLINK-35602", "group": "last-30-days", "lat": -3.3968560404292156, "lon": 110.42839592548773, "alt_km": 419.72965493076936, "timestamp": "2025-12-07T16:44:02.688642+00:00", "meta": {"OBJECT_NAME": "STARLINK-35602", "OBJECT_ID": "2025-257Z", "EPOCH": "2025-12-06T21:21:59.246784", "MEAN_MOTION": 15.49399809, "ECCENTRICITY": 0.00013178, "INCLINATION": 53.1591, "RA_OF_ASC_NODE": 291.7386, "ARG_OF_PERICENTER": 304.6024, "MEAN_ANOMALY": 55.4861, "EPHEMERIS_TYPE": 0, "CLASSIFICATION_TYPE": "U", "NORAD_CAT_ID": 66403, "ELEMENT_SET_NO": 999, "REV_AT_EPOCH": 547, "BSTAR": 0.002137071, "MEAN_MOTION_DOT": 0.00120645, "MEAN_MOTION_DDOT": 0}, "tle": {"line1": "1 66403U 25257Z   25340.89026906  .00120645  00000+0  21371-2 0  9997", "line2": "2 66403  53.1591 291.7386 0001317 304.6024  55.4861 15.49399809  5474"}}, "geometry": {"type": "Point", "coordinates": [110.42839592548773, -3.3968560404292156]}}, {"type": "Feature", "properties": {"norad_id": 66404, "name": "STARLINK-35691", "group": "last-30-days", "lat": -5.441288552777795, "lon": 111.96639899012648, "alt_km": 419.0229339713469, "timestamp": "2025-12-07T16:44:02.688652+00:00", "meta": {"OBJECT_NAME": "STARLINK-35691", "OBJECT_ID": "2025-257AA", "EPOCH": "2025-12-06T07:25:27.788160", "MEAN_MOTION": 15.49375939, "ECCENTRICITY": 4.55e-05, "INCLINATION": 53.1594, "RA_OF_ASC_NODE": 294.5115, "ARG_OF_PERICENTER": 127.6305, "MEAN_ANOMALY": 232.4745, "EPHEMERIS_TYPE": 0, "CLASSIFICATION_TYPE": "U", "NORAD_CAT_ID": 66404, "ELEMENT_SET_NO": 999, "REV_AT_EPOCH": 538, "BSTAR": 0.0020746218, "MEAN_MOTION_DOT": 0.00116952, "MEAN_MOTION_DDOT": 0}, "tle": {"line1": "1 66404U 25257AA  25340.30934940  .00116952  00000+0  20746-2 0  9991", "line2": "2 66404  53.1594 294.5115 0000455 127.6305 232.4745 15.49375939  5382"}}, "geometry": {"type": "Point", "coordinates": [111.96639899012648, -5.441288552777795]}}, {"type": "Feature", "properties": {"norad_id": 66405, "name": "STARLINK-35683", "group": "last-30-days", "lat": -6.596428797436696, "lon": 112.84036898851544, "alt_km": 420.07363165884453, "timestamp": "2025-12-07T16:44:02.688663+00:00", "meta": {"OBJECT_NAME": "STARLINK-35683", "OBJECT_ID": "2025-257AB", "EPOCH": "2025-12-06T07:24:59.394528", "MEAN_MOTION": 15.49312837, "ECCENTRICITY": 7.29e-05, "INCLINATION": 53.1588, "RA_OF_ASC_NODE": 294.5078, "ARG_OF_PERICENTER": 8.5293, "MEAN_ANOMALY": 351.5728, "EPHEMERIS_TYPE": 0, "CLASSIFICATION_TYPE": "U", "NORAD_CAT_ID": 66405, "ELEMENT_SET_NO": 999, "REV_AT_EPOCH": 531, "BSTAR": 0.0019142527, "MEAN_MOTION_DOT": 0.00107505, "MEAN_MOTION_DDOT": 0}, "tle": {"line1": "1 66405U 25257AB  25340.30902077  .00107505  00000+0  19143-2 0  9991", "line2": "2 66405  53.1588 294.5078 0000729   8.5293 351.5728 15.49312837  5316"}}, "geometry": {"type": "Point", "coordinates": [112.84036898851544, -6.596428797436696]}}]}